#aV2020 12 15  0  0  0.00000000     288 DD+AD WGS84 FIT  NGA
## 2136 172800.00000000   300.00000000 59198 0.0000000000000
+   32     1  2  3  4  5  6  7  8  9 10 11 12 13 14 15 16 17
+         18 19 20 21 22 23 24 25 26 27 28 29 30 31 32  0  0
+          0  0  0  0  0  0  0  0  0  0  0  0  0  0  0  0  0
+          0  0  0  0  0  0  0  0  0  0  0  0  0  0  0  0  0
+          0  0  0  0  0  0  0  0  0  0  0  0  0  0  0  0  0
++         2  2  2  2  2  2  2  2  2  2  2  2  2  2  2  2  2
++         2  2  2  2  2  2  2  2  2  2  2  2  2  2  2  0  0
++         0  0  0  0  0  0  0  0  0  0  0  0  0  0  0  0  0
++         0  0  0  0  0  0  0  0  0  0  0  0  0  0  0  0  0
++         0  0  0  0  0  0  0  0  0  0  0  0  0  0  0  0  0
%c cc cc ccc ccc cccc cccc cccc cccc ccccc ccccc ccccc ccccc
%c cc cc ccc ccc cccc cccc cccc cccc ccccc ccccc ccccc ccccc
%f  0.0000000  0.000000000  0.00000000000  0.000000000000000
%f  0.0000000  0.000000000  0.00000000000  0.000000000000000
%i    0    0    0    0      0      0      0      0         0
%i    0    0    0    0      0      0      0      0         0
/*      NGA, ST. LOUIS,MO.                                  
/*   EPHEMERIS COMPUTED FROM 2 DAYS OF DATA                 
/*   EPOCHA v5 SMOOTHER                                     
/*   G1762 IERS2010 SATAF SATAPC                            
*  2020 12 15 18 55  0.00000000
P  1 -21882.105278 -13995.833357   6095.107596    795.311694                    
V  1  -4755.689539  -6637.918024 -30774.188389     -0.052539                    
P  2  10239.948859  20292.445505  14396.773060   -554.769422                    
V  2 -14878.892700  -8791.733152  24078.013020     -0.044549                    
P  3 -13747.430247  -6994.577330  21551.834336    -30.675792                    
V  3   5667.913495 -26935.858628  -5011.144228     -0.099775                    
P  4 -22611.889997  -3066.130679  13632.457963   -164.589429                    
V  4  15892.888743  -7161.774431  24706.192184     -0.033278                    
P  5   4110.432308  23772.959165 -11055.145164    -28.441523                    
V  5  -4854.873663  13282.578609  27311.545192     -0.009778                    
P  6  -3770.495018  15543.131422  21258.045934     -3.988221                    
V  6 -20579.719059 -17172.305720   8971.210295     -0.006667                    
P  7 -19651.723762   -571.924456 -17749.686495   -434.476182                    
V  7 -16184.021132 -16480.958063  17636.311169     -0.074036                    
P  8 -16274.864191  -8288.357408 -19373.948502     -3.017709                    
V  8  22690.891013  -9323.949985 -14785.084752     -0.013734                    
P  9 -25457.354421   7019.482475   2877.104200   -301.759240                    
V  9   2476.567440  -4135.764829  31275.607257     -0.044326                    
P 10  11662.233585 -21055.108414 -10830.040520    -16.728134                    
V 10   -214.618708  14196.963440 -27843.024632     -0.088078                    
P 11 -22073.413010 -12044.513688  -8419.289572    -80.452420                    
V 11  10960.471652  -1594.393743 -28335.328328      0.105568                    
P 12  11605.179654  11211.885195  20888.067048     26.492430                    
V 12  -7684.566052  25889.151642  -9370.347968     -0.052221                    
P 13   6265.823004  14053.596133 -21795.548670     75.369916                    
V 13 -26717.611141   5697.815962  -3917.373740      0.039911                    
P 14 -13674.926407  19028.205121 -12511.428056     64.542939                    
V 14   1496.638690 -15981.833375 -25954.186709      0.102761                    
P 15  18044.715561   6963.645483 -18705.682584   -183.067619                    
V 15 -20123.646569  11288.894113 -15141.371219      0.025882                    
P 16  -1173.522125 -23782.616162 -11487.462894   -250.837843                    
V 16   6198.968765 -13179.254427  27631.445141     -0.054431                    
P 17 -17655.250920  14536.282688  13920.865725    367.461940                    
V 17 -16712.256301   3043.180822 -25183.072974      0.050446                    
P 18  18079.551154  -1640.454798 -19413.997679    332.786634                    
V 18  17365.020587  17468.949447  14643.006065      0.037415                    
P 19 -11677.425720  15123.336576  18129.991479    -64.898871                    
V 19 -23284.411231   3967.882129 -18104.869003      0.050093                    
P 20  14783.893523 -10660.347629 -19296.913214    525.595479                    
V 20    365.855404  24587.910018 -13614.561620     -0.001636                    
P 21 -20748.146188 -16795.909523  -1273.422290     77.900738                    
V 21   3601.756804   -649.185027 -31340.403474      0.035104                    
P 22 -11994.468365 -15488.383600  18200.943535   -714.733494                    
V 22   4080.311756 -22458.500827 -16443.028007      0.060286                    
P 23  15004.479169 -11963.679025 -18375.613398    110.254568                    
V 23  -2421.275829  23205.978792 -17143.284786      0.029389                    
P 24  21904.113593  15299.653066   1506.544474      5.076528                    
V 24   -260.570584   3921.557621 -30857.580602     -0.005226                    
P 25  15542.467308  -3711.878381  20923.404677     40.498425                    
V 25  -4367.170373  26843.713897   8180.797689      0.071354                    
P 26   4541.690826 -26015.981705    695.514207     14.897414                    
V 26   3378.366171   1473.144014  31536.885003      0.058849                    
P 27  -3509.142914 -14555.397384 -22072.460732    -35.532236                    
V 27  26228.316534  -8713.173370   1929.945823     -0.080508                    
P 28 -12439.448139  21735.127862  -8538.478774    642.715594                    
V 28   1195.720444 -11717.603076 -29418.147662     -0.049353                    
P 29  25937.010423  -3940.046195   4263.855650   -256.676488                    
V 29  -4749.467565   3314.913390  31640.457806     -0.074667                    
P 30 -12556.999420   9667.125695 -21284.238098   -352.862660                    
V 30 -19799.712674 -18658.851880   2982.863622     -0.063464                    
P 31   2223.392554 -17104.484556  19997.852614    -87.805299                    
V 31  19847.281592  16378.142382  12220.839322     -0.023976                    
P 32  16595.928653 -15809.735930  13364.453725      8.268761                    
V 32  16750.703715  -3308.459565 -25036.252362      0.025588                    
EOF
